{"type": "FeatureCollection", "features": [ {"type": "Feature", "properties": {"norad_id": 40664, "name": "SKY MEXICO-1", "group": "intelsat", "lat": -0.015050140369558278, "lon": 155.4383692374825, "alt_km": 35789.87322589769, "timestamp": "2025-12-02T10:50:46.941298+00:00", "meta": {"OBJECT_NAME": "SKY MEXICO-1", "OBJECT_ID": "2015-026B", "EPOCH": "2025-12-02T04:54:21.818016", "MEAN_MOTION": 1.00270937, "ECCENTRICITY": 0.0002658, "INCLINATION": 0.0115, "RA_OF_ASC_NODE": 310.0076, "ARG_OF_PERICENTER": 313.8749, "MEAN_ANOMALY": 162.2655, "EPHEMERIS_TYPE": 0, "CLASSIFICATION_TYPE": "U", "NORAD_CAT_ID": 40664, "ELEMENT_SET_NO": 999, "REV_AT_EPOCH": 3847, "BSTAR": 0, "MEAN_MOTION_DOT": -2.14e-06, "MEAN_MOTION_DDOT": 0}, "tle": {"line1": "1 40664U 15026B   25336.20441919 -.00000214  00000+0  00000+0 0  9999", "line2": "2 40664   0.0115 310.0076 0002658 313.8749 162.2655  1.00270937 38470"}}, "geometry": {"type": "Point", "coordinates": [155.4383692374825, -0.015050140369558278]}}, {"type": "Feature", "properties": {"norad_id": 40874, "name": "INTELSAT 34 (IS-34)", "group": "intelsat", "lat": -0.03181014844511093, "lon": 178.7275457412456, "alt_km": 35782.92781762635, "timestamp": "2025-12-02T10:50:46.941310+00:00", "meta": {"OBJECT_NAME": "INTELSAT 34 (IS-34)", "OBJECT_ID": "2015-039A", "EPOCH": "2025-12-01T18:41:08.783232", "MEAN_MOTION": 1.00270951, "ECCENTRICITY": 8.49e-05, "INCLINATION": 0.0157, "RA_OF_ASC_NODE": 294.6924, "ARG_OF_PERICENTER": 230.7347, "MEAN_ANOMALY": 130.2562, "EPHEMERIS_TYPE": 0, "CLASSIFICATION_TYPE": "U", "NORAD_CAT_ID": 40874, "ELEMENT_SET_NO": 999, "REV_AT_EPOCH": 3764, "BSTAR": 0, "MEAN_MOTION_DOT": -2.64e-06, "MEAN_MOTION_DDOT": 0}, "tle": {"line1": "1 40874U 15039A   25335.77857388 -.00000264  00000+0  00000+0 0  9993", "line2": "2 40874   0.0157 294.6924 0000849 230.7347 130.2562  1.00270951 37645"}}, "geometry": {"type": "Point", "coordinates": [178.7275457412456, -0.03181014844511093]}}, {"type": "Feature", "properties": {"norad_id": 41581, "name": "INTELSAT 31 (IS-31)", "group": "intelsat", "lat": -0.017271146761114558, "lon": 139.14709404091707, "alt_km": 35785.43692492289, "timestamp": "2025-12-02T10:50:46.941322+00:00", "meta": {"OBJECT_NAME": "INTELSAT 31 (IS-31)", "OBJECT_ID": "2016-035A", "EPOCH": "2025-12-02T03:03:32.131008", "MEAN_MOTION": 1.00269746, "ECCENTRICITY": 0.0001912, "INCLINATION": 0.0151, "RA_OF_ASC_NODE": 270.5944, "ARG_OF_PERICENTER": 309.5464, "MEAN_ANOMALY": 161.9273, "EPHEMERIS_TYPE": 0, "CLASSIFICATION_TYPE": "U", "NORAD_CAT_ID": 41581, "ELEMENT_SET_NO": 999, "REV_AT_EPOCH": 3470, "BSTAR": 0, "MEAN_MOTION_DOT": -1.3e-06, "MEAN_MOTION_DDOT": 0}, "tle": {"line1": "1 41581U 16035A   25336.12745522 -.00000130  00000+0  00000+0 0  9994", "line2": "2 41581   0.0151 270.5944 0001912 309.5464 161.9273  1.00269746 34701"}}, "geometry": {"type": "Point", "coordinates": [139.14709404091707, -0.017271146761114558]}}, {"type": "Feature", "properties": {"norad_id": 41747, "name": "INTELSAT 36 (IS-36)", "group": "intelsat", "lat": -0.013595831535666012, "lon": -57.25191246103918, "alt_km": 35777.10469182387, "timestamp": "2025-12-02T10:50:46.941334+00:00", "meta": {"OBJECT_NAME": "INTELSAT 36 (IS-36)", "OBJECT_ID": "2016-053A", "EPOCH": "2025-12-01T21:50:38.751936", "MEAN_MOTION": 1.00278088, "ECCENTRICITY": 0.0001727, "INCLINATION": 0.0108, "RA_OF_ASC_NODE": 342.6383, "ARG_OF_PERICENTER": 327.7333, "MEAN_ANOMALY": 156.8269, "EPHEMERIS_TYPE": 0, "CLASSIFICATION_TYPE": "U", "NORAD_CAT_ID": 41747, "ELEMENT_SET_NO": 999, "REV_AT_EPOCH": 3397, "BSTAR": 0, "MEAN_MOTION_DOT": -5e-08, "MEAN_MOTION_DDOT": 0}, "tle": {"line1": "1 41747U 16053A   25335.91017074 -.00000005  00000+0  00000+0 0  9999", "line2": "2 41747   0.0108 342.6383 0001727 327.7333 156.8269  1.00278088 33971"}}, "geometry": {"type": "Point", "coordinates": [-57.25191246103918, -0.013595831535666012]}}, {"type": "Feature", "properties": {"norad_id": 41945, "name": "INTELSAT 32E (IS-32E)", "group": "intelsat", "lat": -0.006042578438531907, "lon": -168.9415755186387, "alt_km": 35786.93189539032, "timestamp": "2025-12-02T10:50:46.941345+00:00", "meta": {"OBJECT_NAME": "INTELSAT 32E (IS-32E)", "OBJECT_ID": "2017-007B", "EPOCH": "2025-12-02T03:18:20.977920", "MEAN_MOTION": 1.00270118, "ECCENTRICITY": 8.4e-06, "INCLINATION": 0.0227, "RA_OF_ASC_NODE": 55.6817, "ARG_OF_PERICENTER": 304.3916, "MEAN_ANOMALY": 77.5977, "EPHEMERIS_TYPE": 0, "CLASSIFICATION_TYPE": "U", "NORAD_CAT_ID": 41945, "ELEMENT_SET_NO": 999, "REV_AT_EPOCH": 3224, "BSTAR": 0, "MEAN_MOTION_DOT": -2.48e-06, "MEAN_MOTION_DDOT": 0}, "tle": {"line1": "1 41945U 17007B   25336.13774280 -.00000248  00000+0  00000+0 0  9992", "line2": "2 41945   0.0227  55.6817 0000084 304.3916  77.5977  1.00270118 32249"}}, "geometry": {"type": "Point", "coordinates": [-168.9415755186387, -0.006042578438531907]}}, {"type": "Feature", "properties": {"norad_id": 42818, "name": "INTELSAT 35E (IS-35E)", "group": "intelsat", "lat": -0.03805356363105127, "lon": -160.2702197689535, "alt_km": 35779.34761182038, "timestamp": "2025-12-02T10:50:46.941357+00:00", "meta": {"OBJECT_NAME": "INTELSAT 35E (IS-35E)", "OBJECT_ID": "2017-041A", "EPOCH": "2025-12-02T03:20:50.740224", "MEAN_MOTION": 1.00273188, "ECCENTRICITY": 0.0002347, "INCLINATION": 0.0173, "RA_OF_ASC_NODE": 312.6291, "ARG_OF_PERICENTER": 297.2688, "MEAN_ANOMALY": 197.0874, "EPHEMERIS_TYPE": 0, "CLASSIFICATION_TYPE": "U", "NORAD_CAT_ID": 42818, "ELEMENT_SET_NO": 999, "REV_AT_EPOCH": 3084, "BSTAR": 0, "MEAN_MOTION_DOT": -2.17e-06, "MEAN_MOTION_DDOT": 0}, "tle": {"line1": "1 42818U 17041A   25336.13947616 -.00000217  00000+0  00000+0 0  9991", "line2": "2 42818   0.0173 312.6291 0002347 297.2688 197.0874  1.00273188 30849"}}, "geometry": {"type": "Point", "coordinates": [-160.2702197689535, -0.03805356363105127]}}, {"type": "Feature", "properties": {"norad_id": 42950, "name": "INTELSAT 37E (IS-37E)", "group": "intelsat", "lat": -0.03465299572723457, "lon": -143.78576415011858, "alt_km": 35773.685651729225, "timestamp": "2025-12-02T10:50:46.941368+00:00", "meta": {"OBJECT_NAME": "INTELSAT 37E (IS-37E)", "OBJECT_ID": "2017-059A", "EPOCH": "2025-12-02T02:44:38.740128", "MEAN_MOTION": 1.00271022, "ECCENTRICITY": 0.000339, "INCLINATION": 0.0128, "RA_OF_ASC_NODE": 290.8013, "ARG_OF_PERICENTER": 313.8771, "MEAN_ANOMALY": 209.7169, "EPHEMERIS_TYPE": 0, "CLASSIFICATION_TYPE": "U", "NORAD_CAT_ID": 42950, "ELEMENT_SET_NO": 999, "REV_AT_EPOCH": 3009, "BSTAR": 0, "MEAN_MOTION_DOT": -1.19e-06, "MEAN_MOTION_DDOT": 0}, "tle": {"line1": "1 42950U 17059A   25336.11433727 -.00000119  00000+0  00000+0 0  9999", "line2": "2 42950   0.0128 290.8013 0003390 313.8771 209.7169  1.00271022 30092"}}, "geometry": {"type": "Point", "coordinates": [-143.78576415011858, -0.03465299572723457]}}, {"type": "Feature", "properties": {"norad_id": 43632, "name": "AZERSPACE 2 (IS-38)", "group": "intelsat", "lat": -0.017037549865544722, "lon": -80.65530410027799, "alt_km": 35779.880348144805, "timestamp": "2025-12-02T10:50:46.941380+00:00", "meta": {"OBJECT_NAME": "AZERSPACE 2 (IS-38)", "OBJECT_ID": "2018-074A", "EPOCH": "2025-12-02T03:43:33.563712", "MEAN_MOTION": 1.00270954, "ECCENTRICITY": 0.000168, "INCLINATION": 0.003, "RA_OF_ASC_NODE": 345.5003, "ARG_OF_PERICENTER": 267.9964, "MEAN_ANOMALY": 278.7706, "EPHEMERIS_TYPE": 0, "CLASSIFICATION_TYPE": "U", "NORAD_CAT_ID": 43632, "ELEMENT_SET_NO": 999, "REV_AT_EPOCH": 2647, "BSTAR": 0, "MEAN_MOTION_DOT": 1.57e-06, "MEAN_MOTION_DDOT": 0}, "tle": {"line1": "1 43632U 18074A   25336.15524958  .00000157  00000+0  00000+0 0  9997", "line2": "2 43632   0.0030 345.5003 0001680 267.9964 278.7706  1.00270954 26475"}}, "geometry": {"type": "Point", "coordinates": [-80.65530410027799, -0.017037549865544722]}}, {"type": "Feature", "properties": {"norad_id": 43633, "name": "HORIZONS-3E", "group": "intelsat", "lat": 0.015127362929829436, "lon": 43.25345987839332, "alt_km": 35788.38806386086, "timestamp": "2025-12-02T10:50:46.941391+00:00", "meta": {"OBJECT_NAME": "HORIZONS-3E", "OBJECT_ID": "2018-074B", "EPOCH": "2025-12-01T18:02:30.823296", "MEAN_MOTION": 1.00268041, "ECCENTRICITY": 7.08e-05, "INCLINATION": 0.0287, "RA_OF_ASC_NODE": 212.6289, "ARG_OF_PERICENTER": 75.528, "MEAN_ANOMALY": 222.3695, "EPHEMERIS_TYPE": 0, "CLASSIFICATION_TYPE": "U", "NORAD_CAT_ID": 43633, "ELEMENT_SET_NO": 999, "REV_AT_EPOCH": 2636, "BSTAR": 0, "MEAN_MOTION_DOT": -9e-08, "MEAN_MOTION_DDOT": 0}, "tle": {"line1": "1 43633U 18074B   25335.75174564 -.00000009  00000+0  00000+0 0  9994", "line2": "2 43633   0.0287 212.6289 0000708  75.5280 222.3695  1.00268041 26368"}}, "geometry": {"type": "Point", "coordinates": [43.25345987839332, 0.015127362929829436]}}, {"type": "Feature", "properties": {"norad_id": 44333, "name": "AT&T T-16", "group": "intelsat", "lat": 0.011364447350642787, "lon": 133.36804084585813, "alt_km": 35785.47249212965, "timestamp": "2025-12-02T10:50:46.941403+00:00", "meta": {"OBJECT_NAME": "AT&T T-16", "OBJECT_ID": "2019-034A", "EPOCH": "2025-12-02T03:01:54.785856", "MEAN_MOTION": 1.00267153, "ECCENTRICITY": 4.91e-05, "INCLINATION": 0.0251, "RA_OF_ASC_NODE": 59.9841, "ARG_OF_PERICENTER": 94.9911, "MEAN_ANOMALY": 220.8904, "EPHEMERIS_TYPE": 0, "CLASSIFICATION_TYPE": "U", "NORAD_CAT_ID": 44333, "ELEMENT_SET_NO": 999, "REV_AT_EPOCH": 2365, "BSTAR": 0, "MEAN_MOTION_DOT": -9.4e-07, "MEAN_MOTION_DDOT": 0}, "tle": {"line1": "1 44333U 19034A   25336.12632854 -.00000094  00000+0  00000+0 0  9996", "line2": "2 44333   0.0251  59.9841 0000491  94.9911 220.8904  1.00267153 23656"}}, "geometry": {"type": "Point", "coordinates": [133.36804084585813, 0.011364447350642787]}}]}